{
  "norad_id": 67635,
  "name": "STARLINK-36627",
  "history": [
    {
      "epoch": "2026-03-28T06:01:17.291712Z",
      "apogee_km": 481.3946149514286,
      "perigee_km": 479.52770453234734,
      "latitude_deg": 5.665063987512964e-08,
      "longitude_deg": 118.84372260472715,
      "height_km": 480.2213326471204,
      "semi_major_axis_km": 6858.598159741888,
      "eccentricity": 0.0001361,
      "inclination_deg": 43.0013,
      "raan_deg": 34.8398,
      "arg_perigee_deg": 271.0164,
      "mean_anomaly_deg": 89.0532,
      "mean_motion_rev_day": 15.28444678
    },
    {
      "epoch": "2026-03-29T03:58:46.029792Z",
      "apogee_km": 482.2155293308424,
      "perigee_km": 478.85203717873446,
      "latitude_deg": 3.577845056205813e-05,
      "longitude_deg": 143.39943617766144,
      "height_km": 480.40971906533963,
      "semi_major_axis_km": 6858.670783254788,
      "eccentricity": 0.0002452,
      "inclination_deg": 43.0033,
      "raan_deg": 29.667,
      "arg_perigee_deg": 266.6534,
      "mean_anomaly_deg": 93.4038,
      "mean_motion_rev_day": 15.28420402
    }
  ]
}